{"type": "FeatureCollection", "features": [ {"type": "Feature", "properties": {"norad_id": 32384, "name": "GPS BIIRM-5 (PRN 29)", "group": "gps-ops", "lat": -54.05657838123243, "lon": -151.48055740189247, "alt_km": 20225.302347188786, "timestamp": "2025-12-04T23:34:05.981363+00:00", "meta": {"OBJECT_NAME": "GPS BIIRM-5 (PRN 29)", "OBJECT_ID": "2007-062A", "EPOCH": "2025-12-02T20:24:02.738880", "MEAN_MOTION": 2.00576658, "ECCENTRICITY": 0.00322118, "INCLINATION": 55.191, "RA_OF_ASC_NODE": 282.0427, "ARG_OF_PERICENTER": 162.849, "MEAN_ANOMALY": 16.9412, "EPHEMERIS_TYPE": 0, "CLASSIFICATION_TYPE": "U", "NORAD_CAT_ID": 32384, "ELEMENT_SET_NO": 999, "REV_AT_EPOCH": 13157, "BSTAR": 0, "MEAN_MOTION_DOT": -4.3e-07, "MEAN_MOTION_DDOT": 0}, "tle": {"line1": "1 32384U 07062A   25336.85003170 -.00000043  00000+0  00000+0 0  9994", "line2": "2 32384  55.1910 282.0427 0032211 162.8490  16.9412  2.00576658131576"}}, "geometry": {"type": "Point", "coordinates": [-151.48055740189247, -54.05657838123243]}}, {"type": "Feature", "properties": {"norad_id": 32711, "name": "GPS BIIRM-6 (PRN 07)", "group": "gps-ops", "lat": -18.083411594715336, "lon": -8.82567178050865, "alt_km": 19783.822203002885, "timestamp": "2025-12-04T23:34:05.981374+00:00", "meta": {"OBJECT_NAME": "GPS BIIRM-6 (PRN 07)", "OBJECT_ID": "2008-012A", "EPOCH": "2025-12-04T04:45:15.966144", "MEAN_MOTION": 2.00565138, "ECCENTRICITY": 0.0202113, "INCLINATION": 54.4758, "RA_OF_ASC_NODE": 157.7139, "ARG_OF_PERICENTER": 244.8547, "MEAN_ANOMALY": 113.0665, "EPHEMERIS_TYPE": 0, "CLASSIFICATION_TYPE": "U", "NORAD_CAT_ID": 32711, "ELEMENT_SET_NO": 999, "REV_AT_EPOCH": 12984, "BSTAR": 0, "MEAN_MOTION_DOT": 9.2e-07, "MEAN_MOTION_DDOT": 0}, "tle": {"line1": "1 32711U 08012A   25338.19810146  .00000092  00000+0  00000+0 0  9995", "line2": "2 32711  54.4758 157.7139 0202113 244.8547 113.0665  2.00565138129841"}}, "geometry": {"type": "Point", "coordinates": [-8.82567178050865, -18.083411594715336]}}, {"type": "Feature", "properties": {"norad_id": 35752, "name": "GPS BIIRM-8 (PRN 05)", "group": "gps-ops", "lat": -35.459136522668544, "lon": -116.29084563987551, "alt_km": 20295.666197181512, "timestamp": "2025-12-04T23:34:05.981386+00:00", "meta": {"OBJECT_NAME": "GPS BIIRM-8 (PRN 05)", "OBJECT_ID": "2009-043A", "EPOCH": "2025-12-01T04:42:32.815296", "MEAN_MOTION": 2.00566259, "ECCENTRICITY": 0.00521242, "INCLINATION": 56.0822, "RA_OF_ASC_NODE": 35.2386, "ARG_OF_PERICENTER": 82.0997, "MEAN_ANOMALY": 288.3285, "EPHEMERIS_TYPE": 0, "CLASSIFICATION_TYPE": "U", "NORAD_CAT_ID": 35752, "ELEMENT_SET_NO": 999, "REV_AT_EPOCH": 11939, "BSTAR": 0, "MEAN_MOTION_DOT": -6.6e-07, "MEAN_MOTION_DDOT": 0}, "tle": {"line1": "1 35752U 09043A   25335.19621314 -.00000066  00000+0  00000+0 0  9994", "line2": "2 35752  56.0822  35.2386 0052124  82.0997 288.3285  2.00566259119397"}}, "geometry": {"type": "Point", "coordinates": [-116.29084563987551, -35.459136522668544]}}, {"type": "Feature", "properties": {"norad_id": 36585, "name": "GPS BIIF-1  (PRN 25)", "group": "gps-ops", "lat": -15.21463162828916, "lon": -154.87111160902523, "alt_km": 20144.983125901574, "timestamp": "2025-12-04T23:34:05.981413+00:00", "meta": {"OBJECT_NAME": "GPS BIIF-1  (PRN 25)", "OBJECT_ID": "2010-022A", "EPOCH": "2025-12-04T06:16:58.952352", "MEAN_MOTION": 2.00552666, "ECCENTRICITY": 0.0125761, "INCLINATION": 54.3017, "RA_OF_ASC_NODE": 216.4159, "ARG_OF_PERICENTER": 64.9818, "MEAN_ANOMALY": 117.6828, "EPHEMERIS_TYPE": 0, "CLASSIFICATION_TYPE": "U", "NORAD_CAT_ID": 36585, "ELEMENT_SET_NO": 999, "REV_AT_EPOCH": 11368, "BSTAR": 0, "MEAN_MOTION_DOT": 7e-07, "MEAN_MOTION_DDOT": 0}, "tle": {"line1": "1 36585U 10022A   25338.26179343  .00000070  00000+0  00000+0 0  9993", "line2": "2 36585  54.3017 216.4159 0125761  64.9818 117.6828  2.00552666113689"}}, "geometry": {"type": "Point", "coordinates": [-154.87111160902523, -15.21463162828916]}}, {"type": "Feature", "properties": {"norad_id": 38833, "name": "GPS BIIF-3  (PRN 24)", "group": "gps-ops", "lat": 52.44152080016997, "lon": -134.40770107380715, "alt_km": 19727.982362583396, "timestamp": "2025-12-04T23:34:05.981428+00:00", "meta": {"OBJECT_NAME": "GPS BIIF-3  (PRN 24)", "OBJECT_ID": "2012-053A", "EPOCH": "2025-12-01T21:10:58.228896", "MEAN_MOTION": 2.00564835, "ECCENTRICITY": 0.01754817, "INCLINATION": 53.5559, "RA_OF_ASC_NODE": 151.6834, "ARG_OF_PERICENTER": 63.8436, "MEAN_ANOMALY": 297.9871, "EPHEMERIS_TYPE": 0, "CLASSIFICATION_TYPE": "U", "NORAD_CAT_ID": 38833, "ELEMENT_SET_NO": 999, "REV_AT_EPOCH": 9548, "BSTAR": 0, "MEAN_MOTION_DOT": 1.16e-06, "MEAN_MOTION_DDOT": 0}, "tle": {"line1": "1 38833U 12053A   25335.88261839  .00000116  00000+0  00000+0 0  9995", "line2": "2 38833  53.5559 151.6834 0175481  63.8436 297.9871  2.00564835 95485"}}, "geometry": {"type": "Point", "coordinates": [-134.40770107380715, 52.44152080016997]}}, {"type": "Feature", "properties": {"norad_id": 39166, "name": "GPS BIIF-4  (PRN 27)", "group": "gps-ops", "lat": 1.088504036157982, "lon": 96.09106820143566, "alt_km": 20413.767079913127, "timestamp": "2025-12-04T23:34:05.981440+00:00", "meta": {"OBJECT_NAME": "GPS BIIF-4  (PRN 27)", "OBJECT_ID": "2013-023A", "EPOCH": "2025-12-02T17:50:49.750368", "MEAN_MOTION": 2.00565046, "ECCENTRICITY": 0.0137297, "INCLINATION": 54.6608, "RA_OF_ASC_NODE": 276.9746, "ARG_OF_PERICENTER": 48.5033, "MEAN_ANOMALY": 312.6627, "EPHEMERIS_TYPE": 0, "CLASSIFICATION_TYPE": "U", "NORAD_CAT_ID": 39166, "ELEMENT_SET_NO": 999, "REV_AT_EPOCH": 9194, "BSTAR": 0, "MEAN_MOTION_DOT": -3.8e-07, "MEAN_MOTION_DDOT": 0}, "tle": {"line1": "1 39166U 13023A   25336.74363137 -.00000038  00000+0  00000+0 0  9997", "line2": "2 39166  54.6608 276.9746 0137297  48.5033 312.6627  2.00565046 91947"}}, "geometry": {"type": "Point", "coordinates": [96.09106820143566, 1.088504036157982]}}, {"type": "Feature", "properties": {"norad_id": 39533, "name": "GPS BIIF-5  (PRN 30)", "group": "gps-ops", "lat": 0.8208083561437359, "lon": -23.370683723807236, "alt_km": 20038.8687753387, "timestamp": "2025-12-04T23:34:05.981452+00:00", "meta": {"OBJECT_NAME": "GPS BIIF-5  (PRN 30)", "OBJECT_ID": "2014-008A", "EPOCH": "2025-12-03T17:38:50.271648", "MEAN_MOTION": 2.00573835, "ECCENTRICITY": 0.0078981, "INCLINATION": 53.6299, "RA_OF_ASC_NODE": 157.292, "ARG_OF_PERICENTER": 226.3864, "MEAN_ANOMALY": 132.9903, "EPHEMERIS_TYPE": 0, "CLASSIFICATION_TYPE": "U", "NORAD_CAT_ID": 39533, "ELEMENT_SET_NO": 999, "REV_AT_EPOCH": 8576, "BSTAR": 0, "MEAN_MOTION_DOT": 9.7e-07, "MEAN_MOTION_DDOT": 0}, "tle": {"line1": "1 39533U 14008A   25337.73530407  .00000097  00000+0  00000+0 0  9999", "line2": "2 39533  53.6299 157.2920 0078981 226.3864 132.9903  2.00573835 85765"}}, "geometry": {"type": "Point", "coordinates": [-23.370683723807236, 0.8208083561437359]}}, {"type": "Feature", "properties": {"norad_id": 39741, "name": "GPS BIIF-6  (PRN 06)", "group": "gps-ops", "lat": -19.844395153976183, "lon": -34.708675180795275, "alt_km": 20086.721553726133, "timestamp": "2025-12-04T23:34:05.981464+00:00", "meta": {"OBJECT_NAME": "GPS BIIF-6  (PRN 06)", "OBJECT_ID": "2014-026A", "EPOCH": "2025-12-04T12:23:41.363808", "MEAN_MOTION": 2.0056177, "ECCENTRICITY": 0.003895, "INCLINATION": 56.5867, "RA_OF_ASC_NODE": 339.0964, "ARG_OF_PERICENTER": 318.2284, "MEAN_ANOMALY": 41.4951, "EPHEMERIS_TYPE": 0, "CLASSIFICATION_TYPE": "U", "NORAD_CAT_ID": 39741, "ELEMENT_SET_NO": 999, "REV_AT_EPOCH": 8463, "BSTAR": 0, "MEAN_MOTION_DOT": -7e-07, "MEAN_MOTION_DDOT": 0}, "tle": {"line1": "1 39741U 14026A   25338.51645097 -.00000070  00000+0  00000+0 0  9991", "line2": "2 39741  56.5867 339.0964 0038950 318.2284  41.4951  2.00561770 84633"}}, "geometry": {"type": "Point", "coordinates": [-34.708675180795275, -19.844395153976183]}}, {"type": "Feature", "properties": {"norad_id": 40105, "name": "GPS BIIF-7  (PRN 09)", "group": "gps-ops", "lat": -55.110358140336196, "lon": 11.6923213361747, "alt_km": 20265.526434854364, "timestamp": "2025-12-04T23:34:05.981475+00:00", "meta": {"OBJECT_NAME": "GPS BIIF-7  (PRN 09)", "OBJECT_ID": "2014-045A", "EPOCH": "2025-12-02T02:40:49.418112", "MEAN_MOTION": 2.00571797, "ECCENTRICITY": 0.00329353, "INCLINATION": 55.2223, "RA_OF_ASC_NODE": 96.323, "ARG_OF_PERICENTER": 119.6015, "MEAN_ANOMALY": 240.7039, "EPHEMERIS_TYPE": 0, "CLASSIFICATION_TYPE": "U", "NORAD_CAT_ID": 40105, "ELEMENT_SET_NO": 999, "REV_AT_EPOCH": 8212, "BSTAR": 0, "MEAN_MOTION_DOT": 7e-08, "MEAN_MOTION_DDOT": 0}, "tle": {"line1": "1 40105U 14045A   25336.11168308  .00000007  00000+0  00000+0 0  9996", "line2": "2 40105  55.2223  96.3230 0032935 119.6015 240.7039  2.00571797 82125"}}, "geometry": {"type": "Point", "coordinates": [11.6923213361747, -55.110358140336196]}}, {"type": "Feature", "properties": {"norad_id": 40294, "name": "GPS BIIF-8  (PRN 03)", "group": "gps-ops", "lat": 0.8946101890286592, "lon": 39.04932237694575, "alt_km": 20121.488581144287, "timestamp": "2025-12-04T23:34:05.981499+00:00", "meta": {"OBJECT_NAME": "GPS BIIF-8  (PRN 03)", "OBJECT_ID": "2014-068A", "EPOCH": "2025-12-03T11:38:05.638272", "MEAN_MOTION": 2.00564094, "ECCENTRICITY": 0.00608191, "INCLINATION": 56.851, "RA_OF_ASC_NODE": 38.5042, "ARG_OF_PERICENTER": 69.3788, "MEAN_ANOMALY": 291.3251, "EPHEMERIS_TYPE": 0, "CLASSIFICATION_TYPE": "U", "NORAD_CAT_ID": 40294, "ELEMENT_SET_NO": 999, "REV_AT_EPOCH": 8128, "BSTAR": 0, "MEAN_MOTION_DOT": -6.5e-07, "MEAN_MOTION_DDOT": 0}, "tle": {"line1": "1 40294U 14068A   25337.48478748 -.00000065  00000+0  00000+0 0  9998", "line2": "2 40294  56.8510  38.5042 0060819  69.3788 291.3251  2.00564094 81285"}}, "geometry": {"type": "Point", "coordinates": [39.04932237694575, 0.8946101890286592]}}]}